FLOCK 4G-25             
1 62646U 25009AP  26193.76730904  .00008065  00000+0  28046-3 0  9998
2 62646  97.4019 275.7393 0002224 168.3966 191.7326 15.29979720 82832
FLOCK 4G-23             
1 62647U 25009AQ  26193.68526412  .00026064  00000+0  77730-3 0  9990
2 62647  97.3916 275.3674 0003188 176.2851 183.8416 15.34627495 82834
FLOCK 4G-34             
1 62650U 25009AT  26193.70593155  .00006935  00000+0  24331-3 0  9999
2 62650  97.3969 275.1678 0002140 168.2197 191.9094 15.29745546 82811
FLOCK 4G-21             
1 62651U 25009AU  26193.76056942  .00028833  00000+0  91122-3 0  9997
2 62651  97.3994 276.2129 0002952 197.3434 162.7708 15.32763589 82876
FLOCK 4G-31             
1 62652U 25009AV  26193.67009628  .00006291  00000+0  22232-3 0  9997
2 62652  97.3971 275.1044 0001649 162.3844 197.7453 15.29548421 82805
FLOCK 4G-4              
1 62659U 25009BC  26193.71204382  .00025567  00000+0  82706-3 0  9992
2 62659  97.3955 274.9496 0004456 200.0812 160.0255 15.32036145140410
FLOCK 4G-6              
1 62660U 25009BD  26193.79073067  .00006951  00000+0  24233-3 0  9993
2 62660  97.3947 275.0759 0002665 210.8225 149.2859 15.29952265140419
FLOCK 4G-2              
1 62661U 25009BE  26193.78487831  .00007777  00000+0  26791-3 0  9999
2 62661  97.4014 275.7085 0003486 211.5166 148.5867 15.30300301140443
FLOCK 4G-5              
1 62663U 25009BG  26193.78070331  .00006484  00000+0  21985-3 0  9998
2 62663  97.4030 276.1016 0003232 189.2168 170.9014 15.30881733 82850
FLOCK 4G-1              
1 62666U 25009BK  26193.18099260  .00006342  00000+0  21997-3 0  9993
2 62666  97.4026 275.0856 0003709 209.9007 150.2022 15.30149951 82735
FLOCK 4G-14             
1 62667U 25009BL  26193.73452238  .00006543  00000+0  22999-3 0  9999
2 62667  97.4030 275.4355 0003909 202.9881 157.1185 15.29703778 82809
FLOCK 4G-10             
1 62670U 25009BP  26193.81101047  .00007450  00000+0  26066-3 0  9998
2 62670  97.3927 274.8122 0003450 222.7577 137.3396 15.29807775140457
FLOCK 4G-36             
1 62675U 25009BU  26193.80549457  .00007493  00000+0  26235-3 0  9998
2 62675  97.4020 275.4274 0004048 208.9659 151.1358 15.29780125 82819
FLOCK 4G-15             
1 62678U 25009BX  26193.74716115  .00007403  00000+0  25852-3 0  9996
2 62678  97.4019 275.5122 0004304 206.1712 153.9311 15.29869769140454
FLOCK 4G-30             
1 62679U 25009BY  26193.76214689  .00030809  00000+0  94100-3 0  9996
2 62679  97.3920 275.0384 0004140 203.6394 156.4659 15.33834124140462
FLOCK 4G-18             
1 62680U 25009BZ  26193.77377409  .00028639  00000+0  92382-3 0  9997
2 62680  97.4013 275.4492 0006034 219.0499 141.0308 15.32095204140450
